idElset,classificationMarking,satNo,epoch,meanMotion,idOnOrbit,uct,eccentricity,inclination,raan,argOfPerigee,meanAnomaly,bStar,meanMotionDot,meanMotionDDot,semiMajorAxis,period,apogee,perigee,origObjectId,line1,line2,createdAt,createdBy,source,dataMode,ephemType,origNetwork,elset
8cb1c9f3-6c18-48f8-9aa7-efdca0d84e24,U//PR-EXO-ELSETS,23111,2025-08-09T20:32:57.279009Z,1.038354918920898,23111,False,0.004689574847183258,12.79097851929713,345.4995191494754,183.7571962738086,175.2567964319152,0.0,0.0,0.0,41194.38081058334,1386.809051279411,41387.56494267794,41001.19667848874,23111,1 23111U 94030D   25221.85621851 +.00000000 +00000+0 +00000+0 2 99991,2 23111  12.7910 345.4995 0046895 183.7572 175.2568  1.03835491000002,2025-08-09T21:54:30.408Z,system.exo,EXO,REAL,2,OPS1,"{'NORAD_ID': 23111, 'classification': 'U', 'COSPAR_ID': '94030D', 'BC': 0.0, 'n_ddot': 0.0, 'B_star': 0.0, 'ephemeris_type': 2, 'elset_num': 9999, 'inclination': 12.791, 'RAAN': 345.4995, 'eccentricity': 0.0046895, 'perigee': 183.7572, 'mean_anomaly': 175.2568, 'mean_motion': 1.03835491, 'rev_num': 0, 'line1': '1 23111U 94030D   25221.85621851 +.00000000 +00000+0 +00000+0 2 99991', 'line2': '2 23111  12.7910 345.4995 0046895 183.7572 175.2568  1.03835491000002', 'epoch': datetime.datetime(2025, 8, 9, 20, 32, 57, 279264)}"
27f5b72c-2ace-449c-ab56-4b102ecd1c70,U//PR-EXO-ELSETS,19548,2025-08-09T20:33:16.986808Z,1.002604202571361,19548,False,0.003449831988332321,12.8392133729236,343.0555996607962,343.1865390408273,251.6423193131,0.0,0.0,0.0,42167.92026443411,1436.259688825219,42313.39250464379,42022.44802422441,19548,1 19548U 88091B   25221.85644661 +.00000000 +00000+0 +00000+0 2 99994,2 19548  12.8392 343.0556 0034498 343.1865 251.6423  1.00260420000006,2025-08-09T21:03:31.608Z,system.exo,EXO,REAL,2,OPS1,"{'NORAD_ID': 19548, 'classification': 'U', 'COSPAR_ID': '88091B', 'BC': 0.0, 'n_ddot': 0.0, 'B_star': 0.0, 'ephemeris_type': 2, 'elset_num': 9999, 'inclination': 12.8392, 'RAAN': 343.0556, 'eccentricity': 0.0034498, 'perigee': 343.1865, 'mean_anomaly': 251.6423, 'mean_motion': 1.0026042, 'rev_num': 0, 'line1': '1 19548U 88091B   25221.85644661 +.00000000 +00000+0 +00000+0 2 99994', 'line2': '2 19548  12.8392 343.0556 0034498 343.1865 251.6423  1.00260420000006', 'epoch': datetime.datetime(2025, 8, 9, 20, 33, 16, 987104)}"
21d3eaa7-1958-466a-9cec-15b5502806a3,U//PR-EXO-ELSETS,14951,2025-08-09T20:33:01.221856Z,0.9941687279277434,14951,False,0.001503903309810724,9.669878921313762,314.6321697200486,243.6399319533143,146.2339092623647,0.0,0.0,0.0,42406.1127525851,1448.446284366189,42469.88744590992,42342.33805926028,14951,1 14951U 84031F   25221.85626414 +.00000000 +00000+0 +00000+0 2 99993,2 14951   9.6699 314.6322 0015039 243.6399 146.2339  0.99416872000000,2025-08-09T22:09:30.381Z,system.exo,EXO,REAL,2,OPS1,"{'NORAD_ID': 14951, 'classification': 'U', 'COSPAR_ID': '84031F', 'BC': 0.0, 'n_ddot': 0.0, 'B_star': 0.0, 'ephemeris_type': 2, 'elset_num': 9999, 'inclination': 9.6699, 'RAAN': 314.6322, 'eccentricity': 0.0015039, 'perigee': 243.6399, 'mean_anomaly': 146.2339, 'mean_motion': 0.99416872, 'rev_num': 0, 'line1': '1 14951U 84031F   25221.85626414 +.00000000 +00000+0 +00000+0 2 99993', 'line2': '2 14951   9.6699 314.6322 0015039 243.6399 146.2339  0.99416872000000', 'epoch': datetime.datetime(2025, 8, 9, 20, 33, 1, 221696)}"
43eecc26-4db4-4575-b9f3-00d20a03b894,U//PR-EXO-ELSETS,7648,2025-08-09T20:33:24.074921Z,0.9951069211796705,7648,False,0.001415995544633864,6.257310352958132,286.6075986716424,263.5460706048248,81.64656328247065,0.0,0.0,0.0,42379.45472404437,1447.080679825764,42439.46384311763,42319.44560497111,7648,1 07648U 75011A   25221.85652864 +.00000000 +00000+0 +00000+0 2 99994,2 07648   6.2573 286.6076 0014159 263.5461  81.6466  0.99510692000004,2025-08-09T21:09:31.281Z,system.exo,EXO,REAL,2,OPS1,"{'NORAD_ID': 7648, 'classification': 'U', 'COSPAR_ID': '75011A', 'BC': 0.0, 'n_ddot': 0.0, 'B_star': 0.0, 'ephemeris_type': 2, 'elset_num': 9999, 'inclination': 6.2573, 'RAAN': 286.6076, 'eccentricity': 0.0014159, 'perigee': 263.5461, 'mean_anomaly': 81.6466, 'mean_motion': 0.99510692, 'rev_num': 0, 'line1': '1 07648U 75011A   25221.85652864 +.00000000 +00000+0 +00000+0 2 99994', 'line2': '2 07648   6.2573 286.6076 0014159 263.5461  81.6466  0.99510692000004', 'epoch': datetime.datetime(2025, 8, 9, 20, 33, 24, 74496)}"
9884ef18-5152-41f1-9c91-7b4d9e468407,U//PR-EXO-ELSETS,50003,2025-08-09T20:33:52.008947Z,1.07946689262129,50003,False,0.4473366166331031,4.858937846348119,92.03507998842798,40.10858206032655,77.14982705440941,0.0,0.0,0.0,40141.68923670252,1333.991815629677,58098.53668578648,22184.84178761856,50003,1 50003U 21123C   25221.85685196 +.00000000 +00000+0 +00000+0 2 99996,2 50003   4.8589  92.0351 4473366  40.1086  77.1498  1.07946689000002,2025-08-09T21:09:31.308Z,system.exo,EXO,REAL,2,OPS1,"{'NORAD_ID': 50003, 'classification': 'U', 'COSPAR_ID': '21123C', 'BC': 0.0, 'n_ddot': 0.0, 'B_star': 0.0, 'ephemeris_type': 2, 'elset_num': 9999, 'inclination': 4.8589, 'RAAN': 92.0351, 'eccentricity': 0.4473366, 'perigee': 40.1086, 'mean_anomaly': 77.1498, 'mean_motion': 1.07946689, 'rev_num': 0, 'line1': '1 50003U 21123C   25221.85685196 +.00000000 +00000+0 +00000+0 2 99996', 'line2': '2 50003   4.8589  92.0351 4473366  40.1086  77.1498  1.07946689000002', 'epoch': datetime.datetime(2025, 8, 9, 20, 33, 52, 9344)}"
d47c94a3-1278-42b8-bff9-26aafe9746c6,U//PR-EXO-ELSETS,27169,2025-08-09T20:34:06.149124Z,1.001714920785198,27169,False,0.005234004391819208,9.699194684528967,31.58351977731116,128.2767999989233,51.23447370234262,0.0,0.0,0.0,42192.87321694213,1437.534741791857,42413.71090066309,41972.03553322119,27169,1 27169U 02001B   25221.85701561 +.00000000 +00000+0 +00000+0 2 99992,2 27169   9.6992  31.5835 0052340 128.2768  51.2345  1.00171492000000,2025-08-09T21:42:30.487Z,system.exo,EXO,REAL,2,OPS1,"{'NORAD_ID': 27169, 'classification': 'U', 'COSPAR_ID': '02001B', 'BC': 0.0, 'n_ddot': 0.0, 'B_star': 0.0, 'ephemeris_type': 2, 'elset_num': 9999, 'inclination': 9.6992, 'RAAN': 31.5835, 'eccentricity': 0.005234, 'perigee': 128.2768, 'mean_anomaly': 51.2345, 'mean_motion': 1.00171492, 'rev_num': 0, 'line1': '1 27169U 02001B   25221.85701561 +.00000000 +00000+0 +00000+0 2 99992', 'line2': '2 27169   9.6992  31.5835 0052340 128.2768  51.2345  1.00171492000000', 'epoch': datetime.datetime(2025, 8, 9, 20, 34, 6, 148704)}"
8aee203d-3ae8-4923-9714-45b73c41cff6,U//PR-EXO-ELSETS,24714,2025-08-09T20:34:48.776292Z,0.9938582030574065,24714,False,0.0008315169628581092,12.02651212857889,30.74423394359324,174.8874384078979,35.21915134726319,0.0,0.0,0.0,42414.94531173063,1448.898842480876,42450.21405823604,42379.67656522523,24714,1 24714U 97002B   25221.85750898 +.00000000 +00000+0 +00000+0 2 99997,2 24714  12.0265  30.7442 0008315 174.8874  35.2192  0.99385820000008,2025-08-09T22:27:31.492Z,system.exo,EXO,REAL,2,OPS1,"{'NORAD_ID': 24714, 'classification': 'U', 'COSPAR_ID': '97002B', 'BC': 0.0, 'n_ddot': 0.0, 'B_star': 0.0, 'ephemeris_type': 2, 'elset_num': 9999, 'inclination': 12.0265, 'RAAN': 30.7442, 'eccentricity': 0.0008315, 'perigee': 174.8874, 'mean_anomaly': 35.2192, 'mean_motion': 0.9938582, 'rev_num': 0, 'line1': '1 24714U 97002B   25221.85750898 +.00000000 +00000+0 +00000+0 2 99997', 'line2': '2 24714  12.0265  30.7442 0008315 174.8874  35.2192  0.99385820000008', 'epoch': datetime.datetime(2025, 8, 9, 20, 34, 48, 775872)}"
be86caf5-ae76-4c3a-a67b-0f90ae25e88e,U//PR-EXO-ELSETS,23448,2025-08-09T02:34:27.289867Z,1.002788428402553,23448,False,0.0007759248272446488,14.39056323792801,353.3102852734764,240.4164178957586,194.8886209329293,0.0,0.0,0.0,42162.75556048099,1435.995828446014,42195.47068930542,42130.04043165656,23448,1 23448U 94087A   25221.10726030 +.00000000 +00000+0 +00000+0 2 99999,2 23448  14.3906 353.3103 0007759 240.4164 194.8886  1.00278842000009,2025-08-09T04:03:29.986Z,system.exo,EXO,REAL,2,OPS1,"{'NORAD_ID': 23448, 'classification': 'U', 'COSPAR_ID': '94087A', 'BC': 0.0, 'n_ddot': 0.0, 'B_star': 0.0, 'ephemeris_type': 2, 'elset_num': 9999, 'inclination': 14.3906, 'RAAN': 353.3103, 'eccentricity': 0.0007759, 'perigee': 240.4164, 'mean_anomaly': 194.8886, 'mean_motion': 1.00278842, 'rev_num': 0, 'line1': '1 23448U 94087A   25221.10726030 +.00000000 +00000+0 +00000+0 2 99999', 'line2': '2 23448  14.3906 353.3103 0007759 240.4164 194.8886  1.00278842000009', 'epoch': datetime.datetime(2025, 8, 9, 2, 34, 27, 289920)}"
536861d4-80c9-4f2f-ae0e-4b7444fc38cf,U//PR-EXO-ELSETS,61993,2025-08-09T20:37:00.800842Z,1.011953428767364,61993,False,0.00847577231899021,0.6863369562112329,70.91234813619677,317.5959238188555,205.4688566985962,0.0,0.0,0.0,41907.79829579889,1422.990385786852,42262.99925254424,41552.59733905353,61993,1 61993U 16053K   25221.85903705 +.00000000 +00000+0 +00000+0 2 99991,2 61993   0.6863  70.9123 0084757 317.5959 205.4689  1.01195342000005,2025-08-09T21:27:31.563Z,system.exo,EXO,REAL,2,OPS1,"{'NORAD_ID': 61993, 'classification': 'U', 'COSPAR_ID': '16053K', 'BC': 0.0, 'n_ddot': 0.0, 'B_star': 0.0, 'ephemeris_type': 2, 'elset_num': 9999, 'inclination': 0.6863, 'RAAN': 70.9123, 'eccentricity': 0.0084757, 'perigee': 317.5959, 'mean_anomaly': 205.4689, 'mean_motion': 1.01195342, 'rev_num': 0, 'line1': '1 61993U 16053K   25221.85903705 +.00000000 +00000+0 +00000+0 2 99991', 'line2': '2 61993   0.6863  70.9123 0084757 317.5959 205.4689  1.01195342000005', 'epoch': datetime.datetime(2025, 8, 9, 20, 37, 0, 801120)}"
